{
  "type": "FeatureCollection",
  "name": "karnataka_bhoomi_cadastral_demo",
  "crs": {
    "type": "name",
    "properties": {
      "name": "urn:ogc:def:crs:OGC:1.3:CRS84"
    }
  },
  "features": [
    {
      "type": "Feature",
      "properties": {
        "state": "KA",
        "district": "BENGALURU URBAN",
        "tehsil": "BANGALORE SOUTH",
        "village": "KENGERI",
        "khasra_number": "42/1",
        "area_hectares": 0.8094,
        "gis_layer_name": "ka_bhoomi_cadastral_demo",
        "data_source_label": "synthetic_demo_cadastral",
        "aliases": ["KA:ಬೆಂಗಳೂರು ನಗರ:ಬೆಂಗಳೂರು ದಕ್ಷಿಣ:ಕೆಂಗೇರಿ:42/1"]
      },
      "geometry": {
        "type": "Polygon",
        "coordinates": [
          [
            [77.4850, 12.9100],
            [77.4880, 12.9100],
            [77.4880, 12.9130],
            [77.4850, 12.9130],
            [77.4850, 12.9100]
          ]
        ]
      }
    },
    {
      "type": "Feature",
      "properties": {
        "state": "KA",
        "district": "BENGALURU URBAN",
        "tehsil": "BANGALORE SOUTH",
        "village": "KENGERI",
        "khasra_number": "42/2",
        "area_hectares": 0.4047,
        "gis_layer_name": "ka_bhoomi_cadastral_demo",
        "data_source_label": "synthetic_demo_cadastral",
        "aliases": ["KA:ಬೆಂಗಳೂರು ನಗರ:ಬೆಂಗಳೂರು ದಕ್ಷಿಣ:ಕೆಂಗೇರಿ:42/2"]
      },
      "geometry": {
        "type": "Polygon",
        "coordinates": [
          [
            [77.4880, 12.9100],
            [77.4900, 12.9100],
            [77.4900, 12.9130],
            [77.4880, 12.9130],
            [77.4880, 12.9100]
          ]
        ]
      }
    },
    {
      "type": "Feature",
      "properties": {
        "state": "KA",
        "district": "MYSURU",
        "tehsil": "MYSURU",
        "village": "CHAMUNDI",
        "khasra_number": "105",
        "area_hectares": 1.2140,
        "gis_layer_name": "ka_bhoomi_cadastral_demo",
        "data_source_label": "synthetic_demo_cadastral",
        "aliases": ["KA:ಮೈಸೂರು:ಮೈಸೂರು:ಚಾಮುಂಡಿ:105"]
      },
      "geometry": {
        "type": "Polygon",
        "coordinates": [
          [
            [76.6700, 12.2800],
            [76.6740, 12.2800],
            [76.6740, 12.2840],
            [76.6700, 12.2840],
            [76.6700, 12.2800]
          ]
        ]
      }
    }
  ]
}
