{
  "type": "FeatureCollection",
  "name": "maharashtra_mahabhumi_cadastral_demo",
  "crs": {
    "type": "name",
    "properties": {
      "name": "urn:ogc:def:crs:OGC:1.3:CRS84"
    }
  },
  "features": [
    {
      "type": "Feature",
      "properties": {
        "state": "MH",
        "district": "PUNE",
        "tehsil": "HAVELI",
        "village": "WAGHOLI",
        "khasra_number": "45",
        "area_hectares": 1.1500,
        "gis_layer_name": "mh_mahabhumi_cadastral_demo",
        "data_source_label": "synthetic_demo_cadastral",
        "aliases": ["MH:पुणे:हवेली:वाघोली:45"]
      },
      "geometry": {
        "type": "Polygon",
        "coordinates": [
          [
            [73.9780, 18.5780],
            [73.9820, 18.5780],
            [73.9820, 18.5820],
            [73.9780, 18.5820],
            [73.9780, 18.5780]
          ]
        ]
      }
    },
    {
      "type": "Feature",
      "properties": {
        "state": "MH",
        "district": "PUNE",
        "tehsil": "HAVELI",
        "village": "WAGHOLI",
        "khasra_number": "46",
        "area_hectares": 0.8500,
        "gis_layer_name": "mh_mahabhumi_cadastral_demo",
        "data_source_label": "synthetic_demo_cadastral",
        "aliases": ["MH:पुणे:हवेली:वाघोली:46"]
      },
      "geometry": {
        "type": "Polygon",
        "coordinates": [
          [
            [73.9820, 18.5780],
            [73.9850, 18.5780],
            [73.9850, 18.5820],
            [73.9820, 18.5820],
            [73.9820, 18.5780]
          ]
        ]
      }
    }
  ]
}
