{
  "type": "FeatureCollection",
  "name": "up_bhulekh_cadastral_demo",
  "crs": {
    "type": "name",
    "properties": {
      "name": "urn:ogc:def:crs:OGC:1.3:CRS84"
    }
  },
  "features": [
    {
      "type": "Feature",
      "properties": {
        "state": "UP",
        "district": "LUCKNOW",
        "tehsil": "MOHANLALGANJ",
        "village": "MAU",
        "khasra_number": "142/1",
        "area_hectares": 0.4500,
        "gis_layer_name": "up_bhulekh_cadastral_demo",
        "data_source_label": "synthetic_demo_cadastral",
        "aliases": ["UP:लखनऊ:मोहनलालगंज:मऊ:142/1"]
      },
      "geometry": {
        "type": "Polygon",
        "coordinates": [
          [
            [80.9500, 26.6810],
            [80.9540, 26.6810],
            [80.9540, 26.6840],
            [80.9500, 26.6840],
            [80.9500, 26.6810]
          ]
        ]
      }
    },
    {
      "type": "Feature",
      "properties": {
        "state": "UP",
        "district": "LUCKNOW",
        "tehsil": "MOHANLALGANJ",
        "village": "MAU",
        "khasra_number": "142",
        "area_hectares": 0.8500,
        "gis_layer_name": "up_bhulekh_cadastral_demo",
        "data_source_label": "synthetic_demo_cadastral",
        "aliases": ["UP:लखनऊ:मोहनलालगंज:मऊ:142"]
      },
      "geometry": {
        "type": "Polygon",
        "coordinates": [
          [
            [80.9540, 26.6810],
            [80.9580, 26.6810],
            [80.9580, 26.6840],
            [80.9540, 26.6840],
            [80.9540, 26.6810]
          ]
        ]
      }
    }
  ]
}
